{
  "norad_id": 52587,
  "name": "STARLINK-3867",
  "history": [
    {
      "epoch": "2026-03-28T20:31:40.262304Z",
      "apogee_km": 540.8177026954572,
      "perigee_km": 538.6757875302965,
      "latitude_deg": 4.690963220207089e-05,
      "longitude_deg": -101.25150950300696,
      "height_km": 540.8101733842433,
      "semi_major_axis_km": 6917.883745112877,
      "eccentricity": 0.00015481,
      "inclination_deg": 53.2199,
      "raan_deg": 32.936,
      "arg_perigee_deg": 99.0091,
      "mean_anomaly_deg": 261.1077,
      "mean_motion_rev_day": 15.08838902
    },
    {
      "epoch": "2026-03-29T02:53:12.940224Z",
      "apogee_km": 540.7921023105291,
      "perigee_km": 538.7098180345165,
      "latitude_deg": 4.719994312365682e-05,
      "longitude_deg": 161.91227469705845,
      "height_km": 540.7712736464792,
      "semi_major_axis_km": 6917.887960172523,
      "eccentricity": 0.0001505,
      "inclination_deg": 53.2197,
      "raan_deg": 31.7471,
      "arg_perigee_deg": 96.8712,
      "mean_anomaly_deg": 263.2452,
      "mean_motion_rev_day": 15.08837523
    }
  ]
}